{
  "norad_id": 58592,
  "name": "STARLINK-31096",
  "history": [
    {
      "epoch": "2026-03-28T14:58:17.966784",
      "apogee_km": 491.10541537007884,
      "perigee_km": 486.3562895633122,
      "latitude_deg": 3.1940974395622086,
      "longitude_deg": 99.08662975998595,
      "semi_major_axis_km": 6866.867852466695,
      "eccentricity": 0.0003458,
      "inclination_deg": 42.9997,
      "raan_deg": 63.0336,
      "arg_perigee_deg": 164.2083,
      "mean_anomaly_deg": 195.8876,
      "mean_motion_rev_day": 15.25684476
    }
  ]
}